{
  "type": "FeatureCollection",
  "features": [
    {
      "type": "Feature",
      "properties": {
        "norad_id": 44793,
        "name": "BEIDOU-3 M22 (C44)",
        "group": "beidou",
        "lat": -43.24669816007658,
        "lon": 169.62326576016105,
        "alt_km": 21545.80779902008,
        "timestamp": "2025-12-02T08:59:32.979674+00:00",
        "meta_object_name": "BEIDOU-3 M22 (C44)",
        "meta_object_id": "2019-078A",
        "meta_epoch": "2025-12-02T00:28:58.554624",
        "meta_mean_motion": 1.86231817,
        "meta_eccentricity": 0.0005633,
        "meta_inclination": 54.1183,
        "meta_ra_of_asc_node": 306.7625,
        "meta_arg_of_pericenter": 22.616,
        "meta_mean_anomaly": 337.398,
        "meta_ephemeris_type": 0,
        "meta_classification_type": "U",
        "meta_norad_cat_id": 44793,
        "meta_element_set_no": 999,
        "meta_rev_at_epoch": 4097,
        "meta_bstar": 0,
        "meta_mean_motion_dot": -6.1e-07,
        "meta_mean_motion_ddot": 0,
        "tle_line1": "1 44793U 19078A   25336.02012216 -.00000061  00000+0  00000+0 0  9991",
        "tle_line2": "2 44793  54.1183 306.7625 0005633  22.6160 337.3980  1.86231817 40974"
      },
      "geometry": {
        "type": "Point",
        "coordinates": [
          169.62326576016105,
          -43.24669816007658
        ]
      }
    },
    {
      "type": "Feature",
      "properties": {
        "norad_id": 44794,
        "name": "BEIDOU-3 M21 (C43)",
        "group": "beidou",
        "lat": 27.18324700222762,
        "lon": 104.85793790807271,
        "alt_km": 21532.76172867469,
        "timestamp": "2025-12-02T08:59:32.979686+00:00",
        "meta_object_name": "BEIDOU-3 M21 (C43)",
        "meta_object_id": "2019-078B",
        "meta_epoch": "2025-12-01T02:00:26.030304",
        "meta_mean_motion": 1.86227539,
        "meta_eccentricity": 0.00038706,
        "meta_inclination": 54.0922,
        "meta_ra_of_asc_node": 306.7607,
        "meta_arg_of_pericenter": 10.0971,
        "meta_mean_anomaly": 349.9036,
        "meta_ephemeris_type": 0,
        "meta_classification_type": "U",
        "meta_norad_cat_id": 44794,
        "meta_element_set_no": 999,
        "meta_rev_at_epoch": 4096,
        "meta_bstar": 0,
        "meta_mean_motion_dot": -5.7e-07,
        "meta_mean_motion_ddot": 0,
        "tle_line1": "1 44794U 19078B   25335.08363461 -.00000057  00000+0  00000+0 0  9993",
        "tle_line2": "2 44794  54.0922 306.7607 0003870  10.0971 349.9036  1.86227539 40963"
      },
      "geometry": {
        "type": "Point",
        "coordinates": [
          104.85793790807271,
          27.18324700222762
        ]
      }
    },
    {
      "type": "Feature",
      "properties": {
        "norad_id": 44864,
        "name": "BEIDOU-3 M19 (C41)",
        "group": "beidou",
        "lat": -15.403655541024396,
        "lon": 58.75911691261907,
        "alt_km": 21503.37800749277,
        "timestamp": "2025-12-02T08:59:32.979697+00:00",
        "meta_object_name": "BEIDOU-3 M19 (C41)",
        "meta_object_id": "2019-090A",
        "meta_epoch": "2025-12-01T20:54:26.017344",
        "meta_mean_motion": 1.86231094,
        "meta_eccentricity": 0.0017512,
        "meta_inclination": 56.3837,
        "meta_ra_of_asc_node": 69.3227,
        "meta_arg_of_pericenter": 284.7988,
        "meta_mean_anomaly": 78.8343,
        "meta_ephemeris_type": 0,
        "meta_classification_type": "U",
        "meta_norad_cat_id": 44864,
        "meta_element_set_no": 999,
        "meta_rev_at_epoch": 4056,
        "meta_bstar": 0,
        "meta_mean_motion_dot": -4.4e-07,
        "meta_mean_motion_ddot": 0,
        "tle_line1": "1 44864U 19090A   25335.87113446 -.00000044  00000+0  00000+0 0  9994",
        "tle_line2": "2 44864  56.3837  69.3227 0017512 284.7988  78.8343  1.86231094 40563"
      },
      "geometry": {
        "type": "Point",
        "coordinates": [
          58.75911691261907,
          -15.403655541024396
        ]
      }
    },
    {
      "type": "Feature",
      "properties": {
        "norad_id": 44865,
        "name": "BEIDOU-3 M20 (C42)",
        "group": "beidou",
        "lat": 51.957626038056056,
        "lon": 127.42990216130687,
        "alt_km": 21549.900496177368,
        "timestamp": "2025-12-02T08:59:32.979708+00:00",
        "meta_object_name": "BEIDOU-3 M20 (C42)",
        "meta_object_id": "2019-090B",
        "meta_epoch": "2025-12-01T04:44:21.164352",
        "meta_mean_motion": 1.86231112,
        "meta_eccentricity": 0.0014612,
        "meta_inclination": 56.3845,
        "meta_ra_of_asc_node": 69.3793,
        "meta_arg_of_pericenter": 297.5654,
        "meta_mean_anomaly": 64.0235,
        "meta_ephemeris_type": 0,
        "meta_classification_type": "U",
        "meta_norad_cat_id": 44865,
        "meta_element_set_no": 999,
        "meta_rev_at_epoch": 4053,
        "meta_bstar": 0,
        "meta_mean_motion_dot": -3.9e-07,
        "meta_mean_motion_ddot": 0,
        "tle_line1": "1 44865U 19090B   25335.19746718 -.00000039  00000+0  00000+0 0  9998",
        "tle_line2": "2 44865  56.3845  69.3793 0014612 297.5654  64.0235  1.86231112 40536"
      },
      "geometry": {
        "type": "Point",
        "coordinates": [
          127.42990216130687,
          51.957626038056056
        ]
      }
    },
    {
      "type": "Feature",
      "properties": {
        "norad_id": 45344,
        "name": "BEIDOU-3 G2 (C60)",
        "group": "beidou",
        "lat": -2.662788758809332,
        "lon": -73.64798785508006,
        "alt_km": 35769.04359531633,
        "timestamp": "2025-12-02T08:59:32.979720+00:00",
        "meta_object_name": "BEIDOU-3 G2 (C60)",
        "meta_object_id": "2020-017A",
        "meta_epoch": "2025-12-02T03:53:29.384160",
        "meta_mean_motion": 1.00270477,
        "meta_eccentricity": 0.0004521,
        "meta_inclination": 2.98,
        "meta_ra_of_asc_node": 43.5362,
        "meta_arg_of_pericenter": 263.9121,
        "meta_mean_anomaly": 262.2537,
        "meta_ephemeris_type": 0,
        "meta_classification_type": "U",
        "meta_norad_cat_id": 45344,
        "meta_element_set_no": 999,
        "meta_rev_at_epoch": 2128,
        "meta_bstar": 0,
        "meta_mean_motion_dot": -1.22e-06,
        "meta_mean_motion_ddot": 0,
        "tle_line1": "1 45344U 20017A   25336.16214565 -.00000122  00000+0  00000+0 0  9993",
        "tle_line2": "2 45344   2.9800  43.5362 0004521 263.9121 262.2537  1.00270477 21288"
      },
      "geometry": {
        "type": "Point",
        "coordinates": [
          -73.64798785508006,
          -2.662788758809332
        ]
      }
    },
    {
      "type": "Feature",
      "properties": {
        "norad_id": 45807,
        "name": "BEIDOU-3 G3 (C61)",
        "group": "beidou",
        "lat": -1.8482935487684526,
        "lon": -43.18982591454902,
        "alt_km": 35776.09354177995,
        "timestamp": "2025-12-02T08:59:32.979732+00:00",
        "meta_object_name": "BEIDOU-3 G3 (C61)",
        "meta_object_id": "2020-040A",
        "meta_epoch": "2025-12-01T14:20:22.098336",
        "meta_mean_motion": 1.00267664,
        "meta_eccentricity": 0.0004952,
        "meta_inclination": 1.9619,
        "meta_ra_of_asc_node": 66.5006,
        "meta_arg_of_pericenter": 306.5523,
        "meta_mean_anomaly": 23.2908,
        "meta_ephemeris_type": 0,
        "meta_classification_type": "U",
        "meta_norad_cat_id": 45807,
        "meta_element_set_no": 999,
        "meta_rev_at_epoch": 2008,
        "meta_bstar": 0,
        "meta_mean_motion_dot": -3.32e-06,
        "meta_mean_motion_ddot": 0,
        "tle_line1": "1 45807U 20040A   25335.59747799 -.00000332  00000+0  00000+0 0  9992",
        "tle_line2": "2 45807   1.9619  66.5006 0004952 306.5523  23.2908  1.00267664 20085"
      },
      "geometry": {
        "type": "Point",
        "coordinates": [
          -43.18982591454902,
          -1.8482935487684526
        ]
      }
    },
    {
      "type": "Feature",
      "properties": {
        "norad_id": 56564,
        "name": "BEIDOU-3 G4 (C62)",
        "group": "beidou",
        "lat": 0.7828828299334188,
        "lon": 6.396970539258225,
        "alt_km": 35800.18478217417,
        "timestamp": "2025-12-02T08:59:32.979744+00:00",
        "meta_object_name": "BEIDOU-3 G4 (C62)",
        "meta_object_id": "2023-066A",
        "meta_epoch": "2025-12-02T04:16:27.185088",
        "meta_mean_motion": 1.00271071,
        "meta_eccentricity": 0.0003397,
        "meta_inclination": 0.84,
        "meta_ra_of_asc_node": 301.1189,
        "meta_arg_of_pericenter": 233.9085,
        "meta_mean_anomaly": 120.4429,
        "meta_ephemeris_type": 0,
        "meta_classification_type": "U",
        "meta_norad_cat_id": 56564,
        "meta_element_set_no": 999,
        "meta_rev_at_epoch": 941,
        "meta_bstar": 0,
        "meta_mean_motion_dot": -9e-07,
        "meta_mean_motion_ddot": 0,
        "tle_line1": "1 56564U 23066A   25336.17809242 -.00000090  00000+0  00000+0 0  9993",
        "tle_line2": "2 56564   0.8400 301.1189 0003397 233.9085 120.4429  1.00271071  9410"
      },
      "geometry": {
        "type": "Point",
        "coordinates": [
          6.396970539258225,
          0.7828828299334188
        ]
      }
    }
  ]
}